IONOSFERA-M 2           
1 61736U 24199B   26194.60020332  .00000028  00000+0  32211-4 0  9998
2 61736  98.7136  67.3997 0000435 119.4169 240.7053 14.22762291134581
PRSC-EO1                
1 62725U 25012A   26194.63057521  .00003686  00000+0  18658-3 0  9996
2 62725  97.4221 266.5721 0006636 150.9589 209.2015 15.17608244 82205
BIOMASS                 
1 63772U 25090A   26194.49092710  .00000537  00000+0  10321-3 0  9999
2 63772  98.0750  21.4211 0001436  96.7848 263.3520 14.67536921 64547
GOSAT-GW (IBUKI GW)     
1 64694U 25141A   26194.64455498  .00000359  00000+0  71693-4 0  9995
2 64694  98.0565 131.5318 0001429  85.0754 275.0614 14.67556016 55726
IONOSFERA-M 3           
1 64876U 25155A   26194.57117015  .00000009  00000+0  23529-4 0  9991
2 64876  98.6039 155.8141 0002241 114.8648 245.2763 14.21490665 50152
IONOSFERA-M 4           
1 64877U 25155B   26194.60596639  .00000004  00000+0  21590-4 0  9990
2 64877  98.6038 155.7652 0001798 101.4167 258.7213 14.21493071 50155
MICROCARB               
1 64899U 25156A   26193.76512663  .00000278  00000+0  51100-4 0  9999
2 64899  98.0075 270.5014 0017429 178.3822 181.7446 14.72883584 51737
CO3D 3                  
1 64900U 25156B   26194.58255646  .00002270  00000+0  10800-3 0  9993
2 64900  97.4339 272.8960 0001795  94.1389 266.0051 15.20184160 53541
CO3D 4                  
1 64901U 25156C   26194.58272753  .00000703  00000+0  35597-4 0  9992
2 64901  97.4335 272.8962 0001557 156.5450 203.5857 15.20202366 53547
CO3D 2                  
1 64902U 25156D   26194.54937792  .00002308  00000+0  10975-3 0  9995
2 64902  97.4338 272.7620 0001256  88.0618 272.0761 15.20193575 53537
CO3D 1                  
1 64903U 25156E   26194.54953144  .00002453  00000+0  11643-3 0  9999
2 64903  97.4337 272.7622 0001282  99.7334 260.4046 15.20193338 53536
PRSC-S1                 
1 65055U 25164A   26194.31711872  .00002244  00000+0  16051-3 0  9998
2 65055  41.1295 140.6256 0006404 185.9768 174.0970 15.06625893 52377
SENTINEL-6B             
1 66514U 25264A   26193.92896572 -.00000059  00000+0  10665-4 0  9996
2 66514  66.0413  81.7138 0007871 268.7841  91.2272 12.80930082 30460
CAS500-3                
1 66655U 25274F   26194.36763282  .00000632  00000+0  74070-4 0  9999
2 66655  97.7437 121.8233 0006343  43.0711 317.1001 14.88381262 34046
CSG-3                   
1 67304U 26001A   26194.52815792  .00000135  00000+0  23485-4 0  9994
2 67304  97.8894  17.7492 0001518  93.3222 266.8165 14.82151371 28369
PRSC-E03                
1 68835U 26092A   26194.56461957  .00001364  00000+0  97080-4 0  9995
2 68835  38.0017 294.1237 0004793 241.0973 118.9308 15.06804745 11932
CAS500-2                
1 69013U 26100AK  26194.60349017  .00003677  00000+0  16936-3 0  9990
2 69013  97.3874  91.9583 0007876 298.8975  61.1470 15.20890845 10822
