OBJECT_NAME,OBJECT_ID,EPOCH,MEAN_MOTION,ECCENTRICITY,INCLINATION,RA_OF_ASC_NODE,ARG_OF_PERICENTER,MEAN_ANOMALY,EPHEMERIS_TYPE,CLASSIFICATION_TYPE,NORAD_CAT_ID,ELEMENT_SET_NO,REV_AT_EPOCH,BSTAR,MEAN_MOTION_DOT,MEAN_MOTION_DDOT
IONOSFERA-M 2,2024-199B,2026-07-13T14:24:17.566848,14.22762291,.00004354,98.7136,67.3997,119.4169,240.7053,0,U,61736,999,13458,.32210936E-4,.28E-6,0
PRSC-EO1,2025-012A,2026-07-13T15:08:01.698144,15.17608244,.00066367,97.4221,266.5721,150.9589,209.2015,0,U,62725,999,8220,.18658041E-3,.3686E-4,0
BIOMASS,2025-090A,2026-07-13T11:46:56.101440,14.67536921,.00014363,98.0750,21.4211,96.7848,263.3520,0,U,63772,999,6454,.10320661E-3,.537E-5,0
GOSAT-GW (IBUKI GW),2025-141A,2026-07-13T15:28:09.550272,14.67556016,.00014295,98.0565,131.5318,85.0754,275.0614,0,U,64694,999,5572,.71693106E-4,.359E-5,0
IONOSFERA-M 3,2025-155A,2026-07-13T13:42:29.100960,14.21490665,.00022417,98.6039,155.8141,114.8648,245.2763,0,U,64876,999,5015,.23528884E-4,.9E-7,0
IONOSFERA-M 4,2025-155B,2026-07-13T14:32:35.496096,14.21493071,.00017981,98.6038,155.7652,101.4167,258.7213,0,U,64877,999,5015,.21589798E-4,.4E-7,0
MICROCARB,2025-156A,2026-07-12T18:21:46.940832,14.72883584,.00174294,98.0075,270.5014,178.3822,181.7446,0,U,64899,999,5173,.51099856E-4,.278E-5,0
CO3D 3,2025-156B,2026-07-13T13:58:52.878144,15.20184160,.00017959,97.4339,272.8960,94.1389,266.0051,0,U,64900,999,5354,.10799791E-3,.227E-4,0
CO3D 4,2025-156C,2026-07-13T13:59:07.658592,15.20202366,.00015574,97.4335,272.8962,156.5450,203.5857,0,U,64901,999,5354,.35596749E-4,.703E-5,0
CO3D 2,2025-156D,2026-07-13T13:11:06.252288,15.20193575,.00012569,97.4338,272.7620,88.0618,272.0761,0,U,64902,999,5353,.10975379E-3,.2308E-4,0
CO3D 1,2025-156E,2026-07-13T13:11:19.516416,15.20193338,.00012824,97.4337,272.7622,99.7334,260.4046,0,U,64903,999,5353,.11642548E-3,.2453E-4,0
PRSC-S1,2025-164A,2026-07-13T07:36:39.057408,15.06625893,.00064045,41.1295,140.6256,185.9768,174.0970,0,U,65055,999,5237,.16051118E-3,.2244E-4,0
SENTINEL-6B,2025-264A,2026-07-12T22:17:42.638208,12.80930082,.00078718,66.0413,81.7138,268.7841,91.2272,0,U,66514,999,3046,.10664884E-4,-.59E-6,0
CAS500-3,2025-274F,2026-07-13T08:49:23.475648,14.88381262,.00063433,97.7437,121.8233,43.0711,317.1001,0,U,66655,999,3404,.74069815E-4,.632E-5,0
CSG-3,2026-001A,2026-07-13T12:40:32.844288,14.82151371,.00015181,97.8894,17.7492,93.3222,266.8165,0,U,67304,999,2836,.2348529E-4,.135E-5,0
PRSC-E03,2026-092A,2026-07-13T13:33:03.130848,15.06804745,.00047936,38.0017,294.1237,241.0973,118.9308,0,U,68835,999,1193,.97079537E-4,.1364E-4,0
CAS500-2,2026-100AK,2026-07-13T14:29:01.550688,15.20890845,.00078767,97.3874,91.9583,298.8975,61.1470,0,U,69013,999,1082,.16936203E-3,.3677E-4,0
